OBJECT_NAME,OBJECT_ID,EPOCH,MEAN_MOTION,ECCENTRICITY,INCLINATION,RA_OF_ASC_NODE,ARG_OF_PERICENTER,MEAN_ANOMALY,EPHEMERIS_TYPE,CLASSIFICATION_TYPE,NORAD_CAT_ID,ELEMENT_SET_NO,REV_AT_EPOCH,BSTAR,MEAN_MOTION_DOT,MEAN_MOTION_DDOT
LEMUR-1,2014-033AL,2026-07-20T20:13:43.785696,14.85347100,.00473034,97.7917,350.9099,329.1490,30.6947,0,U,40044,999,65046,.11442181E-3,.947E-5,0
LEMUR-2-GREENBERG,2017-042N,2026-07-20T20:37:23.011104,15.32264900,.00074888,97.3843,22.3562,235.8206,124.2326,0,U,42837,999,49354,.39253362E-3,.12166E-3,0
LEMUR-2-ANDIS,2017-042P,2026-07-20T00:38:02.866848,15.36045973,.00074525,97.3691,21.8287,238.1835,121.8684,0,U,42838,999,49349,.35312306E-3,.12331E-3,0
LEMUR-2-MONSON,2017-042Q,2026-07-20T22:36:30.525408,15.28850794,.00057124,97.4104,22.3576,221.3717,138.7091,0,U,42839,999,49332,.38003957E-3,.10588E-3,0
LEMUR-2-FURIAUS,2017-042R,2026-07-20T22:35:31.457184,15.31247624,.00056847,97.3789,20.3171,304.8724,55.1982,0,U,42840,999,49337,.40433934E-3,.12138E-3,0
LEMUR-2-PETERG,2017-042S,2026-07-20T10:06:34.043904,15.35147787,.00037037,97.4006,26.5391,198.4784,161.6325,0,U,42841,999,49353,.34433019E-3,.11672E-3,0
LEMUR-2-DEMBITZ,2017-042T,2026-07-20T10:31:15.605184,15.31206759,.00052108,97.3838,22.8641,250.0193,110.0487,0,U,42842,999,49343,.32386587E-3,.9691E-4,0
LEMUR-2-ZACHARY,2017-042W,2026-07-20T21:59:13.503264,15.53082413,.00029861,97.3582,34.3397,219.5977,140.5058,0,U,42845,999,49443,.5827715E-3,.36465E-3,0
LEMUR-2-AMANDA-SVANTE,2021-034B,2026-07-20T20:35:02.115168,15.36180869,.00047874,97.5740,281.0779,131.0230,229.1428,0,U,48269,999,28622,.67481535E-3,.23761E-3,0
LEMUR-2-SPECIAL-K,2021-034F,2026-07-20T19:04:36.454368,15.76795894,.00061937,97.5625,291.3914,210.4851,149.6055,0,U,48273,999,28696,.13543084E-2,.222432E-2,0
LEMUR-2-EMBRIONOVIS,2023-084AQ,2026-07-20T21:42:17.767584,15.38325154,.00087682,97.6332,347.4260,185.5549,174.5599,0,U,56970,999,17286,.26694621E-3,.10011E-3,0
LEMUR-2-DEVERILL-M-T,2023-100F,2026-07-20T21:06:15.109920,15.41269407,.00047938,99.4447,250.4120,272.8645,87.2047,0,U,57391,999,16643,.46318569E-3,.19184E-3,0
LEMUR-2-BASS,2023-174D,2026-07-20T18:56:23.056800,15.44109921,.00072883,97.3837,286.9953,61.4078,298.7903,0,U,58259,999,15054,.23892323E-3,.10852E-3,0
LEMUR-2-JK0903EM1407,2023-174CJ,2026-07-20T18:55:28.805376,15.53256968,.00030275,97.3917,293.2459,10.0504,350.0809,0,U,58336,999,15094,.29397328E-3,.1842E-3,0
LEMUR-2-MJR092620,2023-174CN,2026-07-20T21:24:30.591072,15.45994532,.00047722,97.3966,292.5697,8.9922,351.1412,0,U,58340,999,15085,.2865011E-3,.13894E-3,0
LEMUR-2-NIMBUS2000,2024-022A,2026-07-20T07:59:18.248640,15.41247209,.0008203,97.4083,51.7757,10.9156,349.2267,0,U,58899,999,13737,.30980263E-3,.12813E-3,0
LEMUR-2-VALHALLA,2024-022B,2026-07-20T20:37:39.320832,15.40595623,.00086185,97.4081,52.2740,4.3557,355.7763,0,U,58900,999,13745,.28369677E-3,.11474E-3,0
LEMUR-2-CAEL,2024-022E,2026-07-20T20:09:40.338144,15.41973973,.00065548,97.4058,53.2514,347.9089,12.2000,0,U,58903,999,13752,.2988628E-3,.12655E-3,0
LEMUR-2-JOHNNYTRUONG,2024-043BA,2026-07-20T22:00:17.623296,15.62877464,.00037327,97.5400,355.7788,76.6375,283.5299,0,U,59146,999,13330,.37114399E-3,.33456E-3,0
LEMUR-2-TOMATOKECHUP,2024-149D,2026-07-20T18:43:09.102144,15.36651781,.00034318,97.3785,283.9261,111.5100,248.6510,0,U,60471,999,10732,.18950882E-3,.6701E-4,0
LEMUR-2-STELLA,2024-149BT,2026-07-20T18:19:38.737056,15.12439052,.00013831,97.6727,284.3799,122.2813,237.8552,0,U,60533,999,10557,.38265669E-3,.6585E-4,0
LEMUR-2-MARHISYAM,2024-149BW,2026-07-20T22:55:38.231904,15.11842816,.00022068,97.6870,285.0551,61.2310,298.9141,0,U,60536,999,10558,.38840634E-3,.6575E-4,0
LEMUR-2-AHMED-ASRAR,2024-149DN,2026-07-20T21:21:23.823648,15.13381666,.00017213,97.6996,287.2150,181.6001,178.5224,0,U,60576,999,10566,.43557954E-3,.7707E-4,0
LEMUR-2-LLOYD,2024-149DP,2026-07-20T20:21:42.729408,15.09809945,.00042185,97.6730,283.0077,56.5433,303.6198,0,U,60577,999,10547,.44839688E-3,.7186E-4,0
LEMUR-2-SQUIRRELCOMM,2024-149DQ,2026-07-20T18:42:13.848480,15.07479136,.00040065,97.6699,282.5908,299.4293,60.6535,0,U,60578,999,10546,.25844973E-3,.3857E-4,0
LEMUR-2-SIERRINI,2024-149DR,2026-07-20T20:28:01.983072,15.11580407,.00060385,97.6829,284.6077,75.9770,284.2131,0,U,60579,999,10554,.47345788E-3,.7975E-4,0
LEMUR-2-WILSON,2025-009CP,2026-07-20T18:08:45.858048,14.95288693,.0001611,97.7016,279.6322,291.2101,68.8947,0,U,62694,999,8237,.1296268E-3,.1371E-4,0
LEMUR-2-STAR-FOX,2025-009CR,2026-07-20T18:52:13.657152,15.02884188,.00016101,97.6899,283.1533,20.1847,339.9442,0,U,62696,999,8260,.34884253E-3,.4619E-4,0
LEMUR-2-ARIANNA,2025-009CU,2026-07-20T17:14:07.775520,15.02887787,.00019092,97.6840,282.8336,29.6722,330.4611,0,U,62699,999,8259,.36687247E-3,.4862E-4,0
LEMUR-2-ALISIA,2025-009DB,2026-07-20T22:55:59.623680,15.03225167,.00049153,97.6959,283.9056,113.8505,246.3236,0,U,62706,999,10523,.39543959E-3,.5293E-4,0
